NORAD_CAT_ID,OBJECT_NAME,OBJECT_TYPE,EPOCH,MEAN_MOTION,ECCENTRICITY,INCLINATION,RA_OF_ASC_NODE,ARG_OF_PERICENTER,MEAN_ANOMALY,BSTAR,MEAN_MOTION_DOT,MEAN_MOTION_DDOT,TLE_LINE0,TLE_LINE1,TLE_LINE2,SEMIMAJOR_AXIS,PERIOD,APOGEE,PERIGEE,DECAYED
51140.0,STARLINK-3175,PAYLOAD,2022-11-07 21:30:55,15.08842178,0.0002785,53.2175,6.0070000000000014,38.5044,321.6147,0.00030004,4.49e-05,0.0,0 STARLINK-3175,1 51140U 22005AN  22311.89647803  .00004490  00000-0  30004-3 0  9991,2 51140  53.2175   6.0070 0002785  38.5044 321.6147 15.08842178 44898,6917.874,95.437,541.665,537.812,0.0
51140.0,STARLINK-3175,PAYLOAD,2022-11-08 07:03:14,15.08851315,0.0002623,53.2178,4.2254,31.5102,328.6047,0.00041934,6.394e-05,0.0,0 STARLINK-3175,1 51140U 22005AN  22312.29391414  .00006394  00000-0  41934-3 0  9999,2 51140  53.2178   4.2254 0002623  31.5102 328.6047 15.08851315 46064,6917.846,95.437,541.525,537.896,0.0
51140.0,STARLINK-3175,PAYLOAD,2022-11-08 10:14:00,15.08856273,0.0002571,53.2179,3.6302,29.3779,330.7357,0.00048385,7.424e-05,0.0,0 STARLINK-3175,1 51140U 22005AN  22312.42639109  .00007424  00000-0  48385-3 0  9992,2 51140  53.2179   3.6302 0002571  29.3779 330.7357 15.08856273 44973,6917.831,95.437,541.474,537.9169999999998,0.0
51140.0,STARLINK-3175,PAYLOAD,2022-11-09 03:43:13,15.08877993,0.0002704,53.2178,0.3591,31.5077,328.6077,0.00058606,9.061e-05,0.0,0 STARLINK-3175,1 51140U 22005AN  22313.15501338  .00009061  00000-0  58606-3 0  9991,2 51140  53.2178   0.3591 0002704  31.5077 328.6077 15.08877993 46193,6917.764,95.435,541.5,537.759,0.0
51140.0,STARLINK-3175,PAYLOAD,2022-11-09 11:40:10,15.08817737,0.0003005,53.2179,358.8738,30.5134,329.6033,-0.00068548,-0.00011176,0.0,0 STARLINK-3175,1 51140U 22005AN  22313.48623148 -.00011176  00000-0 -68548-3 0  9999,2 51140  53.2179 358.8738 0003005  30.5134 329.6033 15.08817737 45132,6917.948,95.439,541.8919999999998,537.735,0.0
51140.0,STARLINK-3175,PAYLOAD,2022-11-09 19:37:06,15.08815237,0.000289,53.2178,357.3869,30.0402,330.0755,-0.00084703,-0.00013736,0.0,0 STARLINK-3175,1 51140U 22005AN  22313.81743142 -.00013736  00000-0 -84703-3 0  9998,2 51140  53.2178 357.3869 0002890  30.0402 330.0755 15.08815237 46292,6917.956,95.439,541.82,537.822,0.0
51140.0,STARLINK-3175,PAYLOAD,2022-11-10 11:30:58,15.08808778,0.0002778,53.2179,354.4127,33.4083,326.7084,0.00053959,8.303e-05,0.0,0 STARLINK-3175,1 51140U 22005AN  22314.47984417  .00008303  00000-0  53959-3 0  9994,2 51140  53.2179 354.4127 0002778  33.4083 326.7084 15.08808778 45282,6917.976,95.44,541.763,537.919,0.0
51140.0,STARLINK-3175,PAYLOAD,2022-11-10 19:27:54,15.088145,0.0002809,53.2176,352.9257,33.6411,326.4759,0.00085701,0.00013368,0.0,0 STARLINK-3175,1 51140U 22005AN  22314.81105119  .00013368  00000-0  85701-3 0  9993,2 51140  53.2176 352.9257 0002809  33.6411 326.4759 15.08814500 45330,6917.958000000001,95.439,541.7669999999998,537.88,0.0
51140.0,STARLINK-3175,PAYLOAD,2022-11-11 11:21:47,15.08818988,0.0002787,53.2176,349.9524,34.4011,325.7162,0.00042697,6.51e-05,0.0,0 STARLINK-3175,1 51140U 22005AN  22315.47346240  .00006510  00000-0  42697-3 0  9996,2 51140  53.2176 349.9524 0002787  34.4011 325.7162 15.08818988 45438,6917.945,95.439,541.738,537.882,0.0
51140.0,STARLINK-3175,PAYLOAD,2022-11-11 19:18:43,15.08825303,0.0002803,53.2175,348.4656,35.3767,324.7411,0.00056978,8.788e-05,0.0,0 STARLINK-3175,1 51140U 22005AN  22315.80466635  .00008788  00000-0  56978-3 0  9990,2 51140  53.2175 348.4656 0002803  35.3767 324.7411 15.08825303 46597,6917.925,95.438,541.729,537.851,0.0
51140.0,STARLINK-3175,PAYLOAD,2022-11-12 11:12:34,15.08853143,0.0002848,53.2171,345.4917,36.5799,323.5387,0.00099167,0.00015536,0.0,0 STARLINK-3175,1 51140U 22005AN  22316.46706311  .00015536  00000-0  99167-3 0  9997,2 51140  53.2171 345.4917 0002848  36.5799 323.5387 15.08853143 46690,6917.84,95.437,541.675,537.735,0.0
51140.0,STARLINK-3175,PAYLOAD,2022-11-12 19:09:29,15.08865124,0.0002866,53.217,344.0047,37.1126,323.0064,0.00091659,0.0001434,0.0,0 STARLINK-3175,1 51140U 22005AN  22316.79825735  .00014340  00000-0  91659-3 0  9995,2 51140  53.2170 344.0047 0002866  37.1126 323.0064 15.08865124 45631,6917.804,95.436,541.651,537.686,0.0
51140.0,STARLINK-3175,PAYLOAD,2022-11-13 09:27:56,15.08862104,0.0002446,53.2169,341.3289,37.5417,322.5746,0.00019391,2.801e-05,0.0,0 STARLINK-3175,1 51140U 22005AN  22317.39440840  .00002801  00000-0  19391-3 0  9994,2 51140  53.2169 341.3289 0002446  37.5417 322.5746 15.08862104 46837,6917.813,95.436,541.37,537.986,0.0
51140.0,STARLINK-3175,PAYLOAD,2022-11-13 19:00:16,15.08842262,0.000295,53.217,339.5444,38.7842,321.3361,-5.5656e-05,-1.174e-05,0.0,0 STARLINK-3175,1 51140U 22005AN  22317.79185448 -.00001174  00000-0 -55656-4 0  9997,2 51140  53.2170 339.5444 0002950  38.7842 321.3361 15.08842262 46895,6917.873000000001,95.437,541.779,537.698,0.0
51140.0,STARLINK-3175,PAYLOAD,2022-11-14 07:43:21,15.08848661,0.0002748,53.2184,337.1637,38.5243,321.5945,0.00072392,0.00011255,0.0,0 STARLINK-3175,1 51140U 22005AN  22318.32177434  .00011255  00000-0  72392-3 0  9997,2 51140  53.2184 337.1637 0002748  38.5243 321.5945 15.08848661 45861,6917.854,95.437,541.62,537.818,0.0
51140.0,STARLINK-3175,PAYLOAD,2022-11-15 04:23:22,15.08847168,0.0002934,53.2177,333.2997,38.685,321.4352,0.00031613,4.747e-05,0.0,0 STARLINK-3175,1 51140U 22005AN  22319.18289373  .00004747  00000-0  31613-3 0  9997,2 51140  53.2177 333.2997 0002934  38.6850 321.4352 15.08847168 47102,6917.858,95.437,541.753,537.694,0.0
51140.0,STARLINK-3175,PAYLOAD,2022-11-15 07:34:08,15.08848514,0.0002909,53.2176,332.7046,39.2523,320.868,0.00038512,5.848e-05,0.0,0 STARLINK-3175,1 51140U 22005AN  22319.31537329  .00005848  00000-0  38512-3 0  9997,2 51140  53.2176 332.7046 0002909  39.2523 320.8680 15.08848514 46018,6917.854,95.437,541.732,537.707,0.0
51140.0,STARLINK-3175,PAYLOAD,2022-11-16 01:03:22,15.08845084,0.000289,53.2174,329.4344,37.8483,322.2712,0.00017791,2.545e-05,0.0,0 STARLINK-3175,1 51140U 22005AN  22320.04401228  .00002545  00000-0  17791-3 0  9994,2 51140  53.2174 329.4344 0002890  37.8483 322.2712 15.08845084 47234,6917.865,95.437,541.729,537.731,0.0
51140.0,STARLINK-3175,PAYLOAD,2022-11-16 07:24:55,15.08841492,0.0002914,53.2172,328.2447,38.7889,321.3312,6.6685e-05,7.73e-06,0.0,0 STARLINK-3175,1 51140U 22005AN  22320.30897329  .00000773  00000-0  66685-4 0  9992,2 51140  53.2172 328.2447 0002914  38.7889 321.3312 15.08841492 46166,6917.876,95.437,541.757,537.725,0.0
51140.0,STARLINK-3175,PAYLOAD,2022-11-17 00:54:10,15.08834765,0.0002851,53.2182,324.9752,35.2764,324.8417,1.531e-05,-4.5e-07,0.0,0 STARLINK-3175,1 51140U 22005AN  22321.03761823 -.00000045  00000-0  15310-4 0  9994,2 51140  53.2182 324.9752 0002851  35.2764 324.8417 15.08834765 47387,6917.896,95.438,541.734,537.789,0.0
51140.0,STARLINK-3175,PAYLOAD,2022-11-17 07:15:42,15.0884268,0.0002898999999999,53.2186,323.7865,36.8029,323.3162,0.00016615,2.357e-05,0.0,0 STARLINK-3175,1 51140U 22005AN  22321.30257568  .00002357  00000-0  16615-3 0  9995,2 51140  53.2186 323.7865 0002899  36.8029 323.3162 15.08842680 46314,6917.871999999999,95.437,541.743,537.732,0.0
51140.0,STARLINK-3175,PAYLOAD,2022-11-18 10:17:15,15.0884549,0.0002905,53.2173,318.7301,37.6962,322.4233,0.00015768,2.222e-05,0.0,0 STARLINK-3175,1 51140U 22005AN  22322.42865258  .00002222  00000-0  15768-3 0  9999,2 51140  53.2173 318.7301 0002905  37.6962 322.4233 15.08845490 47594,6917.864000000001,95.437,541.738,537.719,0.0
51140.0,STARLINK-3175,PAYLOAD,2022-11-18 16:38:48,15.08841867,0.0002921,53.217,317.5401,35.8224,324.2964,0.00010554,1.392e-05,0.0,0 STARLINK-3175,1 51140U 22005AN  22322.69361442  .00001392  00000-0  10554-3 0  9999,2 51140  53.2170 317.5401 0002921  35.8224 324.2964 15.08841867 46525,6917.875,95.437,541.76,537.719,0.0
51140.0,STARLINK-3175,PAYLOAD,2022-11-19 00:35:44,15.08840489,0.0002898,53.217,316.0529,35.6283,324.4903,1.0834000000000003e-05,-1.16e-06,0.0,0 STARLINK-3175,1 51140U 22005AN  22323.02481493 -.00000116  00000-0  10834-4 0  9992,2 51140  53.2170 316.0529 0002898  35.6283 324.4903 15.08840489 47688,6917.879,95.438,541.749,537.739,0.0
51140.0,STARLINK-3175,PAYLOAD,2022-11-19 10:08:02,15.08846282,0.0002932,53.2169,314.2687,36.52,323.5992,8.9471e-05,1.136e-05,0.0,0 STARLINK-3175,1 51140U 22005AN  22323.42225161  .00001136  00000-0  89471-4 0  9999,2 51140  53.2169 314.2687 0002932  36.5200 323.5992 15.08846282 46638,6917.861,95.437,541.755,537.698,0.0
51140.0,STARLINK-3175,PAYLOAD,2022-11-19 16:29:34,15.08852582,0.0002956,53.2173,313.0794,36.9332,323.1863,0.00016218,2.294e-05,0.0,0 STARLINK-3175,1 51140U 22005AN  22323.68720711  .00002294  00000-0  16218-3 0  9992,2 51140  53.2173 313.0794 0002956  36.9332 323.1863 15.08852582 47785,6917.842,95.437,541.752,537.6619999999998,0.0
51140.0,STARLINK-3175,PAYLOAD,2022-11-20 00:26:30,15.08839582,0.0002983,53.2179,311.593,37.223,322.8968,-3.4627e-06,-3.44e-06,0.0,0 STARLINK-3175,1 51140U 22005AN  22324.01841202 -.00000344  00000-0 -34627-5 0  9991,2 51140  53.2179 311.5930 0002983  37.2230 322.8968 15.08839582 47830,6917.882,95.438,541.81,537.683,0.0
51140.0,STARLINK-3175,PAYLOAD,2022-11-20 11:34:13,15.08833287,0.0002909,53.2177,309.5112,37.3152,322.8042,-1.9071e-05,-5.92e-06,0.0,0 STARLINK-3175,1 51140U 22005AN  22324.48210194 -.00000592  00000-0 -19071-4 0  9992,2 51140  53.2177 309.5112 0002909  37.3152 322.8042 15.08833287 46792,6917.901,95.438,541.778,537.753,0.0
51140.0,STARLINK-3175,PAYLOAD,2022-11-20 16:20:23,15.08832004,0.0002912,53.218,308.6187,36.6607,323.4584,-2.9499e-05,-7.58e-06,0.0,0 STARLINK-3175,1 51140U 22005AN  22324.68082338 -.00000758  00000-0 -29499-4 0  9990,2 51140  53.2180 308.6187 0002912  36.6607 323.4584 15.08832004 47930,6917.905,95.438,541.784,537.755,0.0
